NORAD_CAT_ID,OBJECT_NAME,OBJECT_TYPE,EPOCH,MEAN_MOTION,ECCENTRICITY,INCLINATION,RA_OF_ASC_NODE,ARG_OF_PERICENTER,MEAN_ANOMALY,BSTAR,MEAN_MOTION_DOT,MEAN_MOTION_DDOT,TLE_LINE0,TLE_LINE1,TLE_LINE2,SEMIMAJOR_AXIS,PERIOD,APOGEE,PERIGEE,DECAYED
52466.0,STARLINK-3840,PAYLOAD,2024-06-02 04:01:13,15.08852958,0.0001586,53.2161,77.1507,79.6872,280.4299,-0.00012715,-2.312e-05,0.0,0 STARLINK-3840,1 52466U 22049R   24154.16752147 -.00002312  00000-0 -12715-3 0  9998,2 52466  53.2161  77.1507 0001586  79.6872 280.4299 15.08852958114954,6917.841,95.437,540.803,538.609,0.0
52466.0,STARLINK-3840,PAYLOAD,2024-06-02 11:58:09,15.08837227,0.0001197,53.2163,75.6646,92.4202,267.6927,5.2418e-05,5.46e-06,0.0,0 STARLINK-3840,1 52466U 22049R   24154.49872683  .00000546  00000-0  52418-4 0  9992,2 52466  53.2163  75.6646 0001197  92.4202 267.6927 15.08837227115005,6917.889,95.438,540.582,538.926,0.0
52466.0,STARLINK-3840,PAYLOAD,2024-06-03 11:48:56,15.08839517,0.0001193,53.2172,71.2045,91.9493,268.1635,7.7565e-05,9.47e-06,0.0,0 STARLINK-3840,1 52466U 22049R   24155.49232567  .00000947  00000-0  77565-4 0  9999,2 52466  53.2172  71.2045 0001193  91.9493 268.1635 15.08839517114995,6917.882,95.438,540.572,538.922,0.0
52466.0,STARLINK-3840,PAYLOAD,2024-06-04 03:42:48,15.08839181,0.0001066,53.2161,68.2325,89.8568,270.2546,2.2262e-05,6.7e-07,0.0,0 STARLINK-3840,1 52466U 22049R   24156.15472685  .00000067  00000-0  22262-4 0  9997,2 52466  53.2161  68.2325 0001066  89.8568 270.2546 15.08839181115250,6917.883,95.438,540.485,539.01,0.0
52466.0,STARLINK-3840,PAYLOAD,2024-06-04 11:39:43,15.0884346,0.0001249,53.217,66.7439,98.7008,261.4125,7.0799e-05,8.39e-06,0.0,0 STARLINK-3840,1 52466U 22049R   24156.48592292  .00000839  00000-0  70799-4 0  9995,2 52466  53.2170  66.7439 0001249  98.7008 261.4125 15.08843460115148,6917.87,95.437,540.599,538.871,0.0
52466.0,STARLINK-3840,PAYLOAD,2024-06-04 22:47:25,15.08845924,9.65e-05,53.2165,64.6628,104.1274,255.9825,6.9829e-05,8.24e-06,0.0,0 STARLINK-3840,1 52466U 22049R   24156.94959903  .00000824  00000-0  69829-4 0  9998,2 52466  53.2165  64.6628 0000965 104.1274 255.9825 15.08845924115210,6917.862,95.437,540.395,539.06,0.0
52466.0,STARLINK-3840,PAYLOAD,2024-06-05 03:33:35,15.088436,0.0001147,53.2172,63.7721,85.0235,275.0888,4.4477e-05,4.2e-06,0.0,0 STARLINK-3840,1 52466U 22049R   24157.14832176  .00000420  00000-0  44477-4 0  9997,2 52466  53.2172  63.7721 0001147  85.0235 275.0888 15.08843600115243,6917.869,95.437,540.528,538.941,0.0
52466.0,STARLINK-3840,PAYLOAD,2024-06-06 03:24:22,15.0882035,0.0001151,53.2165,59.3119,80.5395,279.5727,0.00025326,3.743e-05,0.0,0 STARLINK-3840,1 52466U 22049R   24158.14192948  .00003743  00000-0  25326-3 0  9996,2 52466  53.2165  59.3119 0001151  80.5395 279.5727 15.08820350115551,6917.94,95.439,540.602,539.009,0.0
52466.0,STARLINK-3840,PAYLOAD,2024-06-07 09:36:43,15.08825904,0.0001113,53.2161,53.661,85.6499,274.462,-3.4891e-05,-8.43e-06,0.0,0 STARLINK-3840,1 52466U 22049R   24159.40050058 -.00000843  00000-0 -34891-4 0  9999,2 52466  53.2161  53.6610 0001113  85.6499 274.4620 15.08825904115746,6917.923,95.438,540.558,539.019,0.0
52466.0,STARLINK-3840,PAYLOAD,2024-06-07 22:19:47,15.08845667,0.0002192,53.2199,51.2827,86.7389,273.3854,0.00019599,2.833e-05,0.0,0 STARLINK-3840,1 52466U 22049R   24159.93040529  .00002833  00000-0  19599-3 0  9995,2 52466  53.2199  51.2827 0002192  86.7389 273.3854 15.08845667115665,6917.863,95.437,541.244,538.212,0.0
52466.0,STARLINK-3840,PAYLOAD,2024-06-08 03:05:55,15.0885321,7.17e-05,53.2172,50.3888,98.7097,261.3976,0.00024195,3.566e-05,0.0,0 STARLINK-3840,1 52466U 22049R   24160.12911313  .00003566  00000-0  24195-3 0  9998,2 52466  53.2172  50.3888 0000717  98.7097 261.3976 15.08853210115859,6917.84,95.437,540.201,539.209,0.0
52466.0,STARLINK-3840,PAYLOAD,2024-06-08 09:27:27,15.08853497,7e-05,53.2171,49.1991,84.9095,275.1977,0.00022946,3.367e-05,0.0,0 STARLINK-3840,1 52466U 22049R   24160.39407184  .00003367  00000-0  22946-3 0  9994,2 52466  53.2171  49.1991 0000700  84.9095 275.1977 15.08853497115734,6917.839,95.437,540.188,539.22,0.0
52466.0,STARLINK-3840,PAYLOAD,2024-06-08 22:10:33,15.08842174,0.000162,53.2191,46.8215,86.3911,273.7266,0.00018918,2.724e-05,0.0,0 STARLINK-3840,1 52466U 22049R   24160.92399985  .00002724  00000-0  18918-3 0  9992,2 52466  53.2191  46.8215 0001620  86.3911 273.7266 15.08842174115818,6917.874,95.437,540.859,538.618,0.0
52466.0,STARLINK-3840,PAYLOAD,2024-06-09 01:21:19,15.08841188,0.0001491,53.2185,46.2266,84.5569,275.5594,0.00016016,2.262e-05,0.0,0 STARLINK-3840,1 52466U 22049R   24161.05648042  .00002262  00000-0  16016-3 0  9992,2 52466  53.2185  46.2266 0001491  84.5569 275.5594 15.08841188115993,6917.877,95.437,540.773,538.71,0.0
52466.0,STARLINK-3840,PAYLOAD,2024-06-09 22:01:21,15.08841386,9.44e-05,53.218,42.36,81.8986,278.2113,-0.00018295,-3.198e-05,0.0,0 STARLINK-3840,1 52466U 22049R   24161.91761207 -.00003198  00000-0 -18295-3 0  9998,2 52466  53.2180  42.3600 0000944  81.8986 278.2113 15.08841386115966,6917.876,95.437,540.394,539.088,0.0
52466.0,STARLINK-3840,PAYLOAD,2024-06-10 01:12:08,15.08839803,9.61e-05,53.2179,41.7655,82.3901,277.7201,-0.00019022,-3.314e-05,0.0,0 STARLINK-3840,1 52466U 22049R   24162.05009308 -.00003314  00000-0 -19022-3 0  9990,2 52466  53.2179  41.7655 0000961  82.3901 277.7201 15.08839803116143,6917.881,95.438,540.411,539.081,0.0
52466.0,STARLINK-3840,PAYLOAD,2024-06-10 09:09:03,15.0883872,9.51e-05,53.2178,40.2788,83.9647,276.1454,-0.00018193,-3.182e-05,0.0,0 STARLINK-3840,1 52466U 22049R   24162.38129330 -.00003182  00000-0 -18193-3 0  9995,2 52466  53.2178  40.2788 0000951  83.9647 276.1454 15.08838720116034,6917.884,95.438,540.407,539.091,0.0
52466.0,STARLINK-3840,PAYLOAD,2024-06-10 21:52:08,15.0883546,8.08e-05,53.2169,37.8993,84.7524,275.3561,-8.7275e-05,-1.676e-05,0.0,0 STARLINK-3840,1 52466U 22049R   24162.91121249 -.00001676  00000-0 -87275-4 0  9999,2 52466  53.2169  37.8993 0000808  84.7524 275.3561 15.08835460116115,6917.894,95.438,540.318,539.2,0.0
52466.0,STARLINK-3840,PAYLOAD,2024-06-11 08:59:50,15.08837483,0.000108,53.2178,35.8195,79.9657,280.1457,8.0208e-05,9.89e-06,0.0,0 STARLINK-3840,1 52466U 22049R   24163.37488757  .00000989  00000-0  80208-4 0  9993,2 52466  53.2178  35.8195 0001080  79.9657 280.1457 15.08837483116185,6917.888,95.438,540.5,539.006,0.0
52466.0,STARLINK-3840,PAYLOAD,2024-06-11 23:18:19,15.0883,0.0001108,53.2178,33.1433,81.2539,278.8579,8.597e-05,1.08e-05,0.0,0 STARLINK-3840,1 52466U 22049R   24163.97105460  .00001080  00000-0  85970-4 0  9990,2 52466  53.2178  33.1433 0001108  81.2539 278.8579 15.08830000116432,6917.911,95.438,540.542,539.009,0.0
52466.0,STARLINK-3840,PAYLOAD,2024-06-12 21:33:42,15.08840609,0.0001144,53.2184,28.979,89.5914,270.5209,2.9069e-05,1.75e-06,0.0,0 STARLINK-3840,1 52466U 22049R   24164.89841357  .00000175  00000-0  29069-4 0  9995,2 52466  53.2184  28.9790 0001144  89.5914 270.5209 15.08840609116418,6917.879,95.438,540.535,538.952,0.0
52466.0,STARLINK-3840,PAYLOAD,2024-06-13 21:24:30,15.08834845,0.0001168,53.2184,24.5177,93.357,266.7556,1.1738e-05,-1.01e-06,0.0,0 STARLINK-3840,1 52466U 22049R   24165.89201809 -.00000101  00000-0  11738-4 0  9992,2 52466  53.2184  24.5177 0001168  93.3570 266.7556 15.08834845116727,6917.896,95.438,540.569,538.953,0.0
52466.0,STARLINK-3840,PAYLOAD,2024-06-14 21:15:17,15.08835598,0.0001176,53.2183,20.0583,87.8428,272.2699,-7.1851e-06,-4.02e-06,0.0,0 STARLINK-3840,1 52466U 22049R   24166.88562021 -.00000402  00000-0 -71851-5 0  9996,2 52466  53.2183  20.0583 0001176  87.8428 272.2699 15.08835598116712,6917.894,95.438,540.572,538.945,0.0
52466.0,STARLINK-3840,PAYLOAD,2024-06-15 06:47:36,15.08839391,0.0001172,53.2184,18.2735,85.9829,274.1297,3.1603e-05,2.15e-06,0.0,0 STARLINK-3840,1 52466U 22049R   24167.28305684  .00000215  00000-0  31603-4 0  9991,2 52466  53.2184  18.2735 0001172  85.9829 274.1297 15.08839391116777,6917.882,95.438,540.558,538.936,0.0
52466.0,STARLINK-3840,PAYLOAD,2024-06-15 21:06:04,15.08835749,0.0001207,53.2187,15.5978,87.2859,272.8271,2.1673e-05,5.7e-07,0.0,0 STARLINK-3840,1 52466U 22049R   24167.87922059  .00000057  00000-0  21673-4 0  9997,2 52466  53.2187  15.5978 0001207  87.2859 272.8271 15.08835749116866,6917.893,95.438,540.593,538.923,0.0
52466.0,STARLINK-3840,PAYLOAD,2024-06-16 06:38:23,15.08836451,0.0001223,53.2189,13.8141,87.9414,272.1719,9.5212e-06,-1.36e-06,0.0,0 STARLINK-3840,1 52466U 22049R   24168.27666157 -.00000136  00000-0  95212-5 0  9996,2 52466  53.2189  13.8141 0001223  87.9414 272.1719 15.08836451116921,6917.891,95.438,540.602,538.91,0.0
52466.0,STARLINK-3840,PAYLOAD,2024-06-16 20:56:51,15.08849679,0.000115,53.2187,11.1382,84.1411,275.9712,-0.00013692,-2.467e-05,0.0,0 STARLINK-3840,1 52466U 22049R   24168.87282075 -.00002467  00000-0 -13692-3 0  9995,2 52466  53.2187  11.1382 0001150  84.1411 275.9712 15.08849679117013,6917.851,95.437,540.511,538.92,0.0
52466.0,STARLINK-3840,PAYLOAD,2024-06-17 20:47:38,15.08838085,0.000125,53.2186,6.6777,84.5994,275.514,3.4963e-05,2.69e-06,0.0,0 STARLINK-3840,1 52466U 22049R   24169.86642252  .00000269  00000-0  34963-4 0  9993,2 52466  53.2186   6.6777 0001250  84.5994 275.5140 15.08838085117324,6917.886,95.438,540.616,538.887,0.0
52466.0,STARLINK-3840,PAYLOAD,2024-06-17 22:23:02,15.08838341,0.0001253,53.2186,6.3803,84.4868,275.6267,3.6431e-05,2.92e-06,0.0,0 STARLINK-3840,1 52466U 22049R   24169.93266238  .00000292  00000-0  36431-4 0  9995,2 52466  53.2186   6.3803 0001253  84.4868 275.6267 15.08838341117172,6917.885,95.438,540.617,538.884,0.0
52466.0,STARLINK-3840,PAYLOAD,2024-06-18 06:19:57,15.08841556,0.0001263,53.2184,4.8932,81.5934,278.5201,5.7263e-05,6.24e-06,0.0,0 STARLINK-3840,1 52466U 22049R   24170.26385955  .00000624  00000-0  57263-4 0  9996,2 52466  53.2184   4.8932 0001263  81.5934 278.5201 15.08841556117227,6917.876,95.437,540.614,538.867,0.0
